{
  "norad_id": 57386,
  "name": "STARLING 4",
  "history": [
    {
      "epoch": "2026-03-28T00:29:20.432832",
      "apogee_km": 552.3694752384135,
      "perigee_km": 542.6370115171994,
      "latitude_deg": -57.747551147758514,
      "longitude_deg": -79.44396351999603,
      "semi_major_axis_km": 6925.640243377806,
      "eccentricity": 0.00070264,
      "inclination_deg": 99.5124,
      "raan_deg": 85.8423,
      "arg_perigee_deg": 22.1869,
      "mean_anomaly_deg": 337.9654,
      "mean_motion_rev_day": 15.06304834
    }
  ]
}