{"fetched_at":"2026-03-29T02:12:04Z","count":15717,"tles":[{"name":"STARLING 4","line1":"1 57386U 23100A   26087.02037538  .00000259  00000+0  23802-4 0  9990","line2":"2 57386  99.5124  85.8423 0007026  22.1869 337.9654 15.06304834147681","category":"Other"}]}